TJS-7                   
1 49115U 21077A   26187.26992329 -.00000109  00000+0  00000+0 0  9992
2 49115   0.3088 264.3071 0003294 115.8192 261.8340  1.00270860  9747
CHINASAT 9B             
1 49125U 21080A   26187.30970296 -.00000298  00000+0  00000+0 0  9990
2 49125   0.0173  61.0734 0002171  75.8342   0.2951  1.00273195 17840
SHIJIAN-21 (SJ-21)      
1 49330U 21094A   26187.26078049 -.00000337  00000+0  00000+0 0  9997
2 49330   5.1551  61.0636 0050060 168.1494 276.5910  1.00261404  5557
SES-17                  
1 49332U 21095A   26187.27633664 -.00000258  00000+0  00000+0 0  9993
2 49332   0.0221  42.1339 0001007  65.7350 208.7762  1.00270102 18042
SYRACUSE 4A             
1 49333U 21095B   26187.22705944  .00000000  00000+0  00000+0 0  9994
2 49333   0.0192  32.7742 0001352  66.3435 312.3537  1.00269016 18131
QZS-1R (MICHIBIKI-1R)   
1 49336U 21096A   26186.60108073 -.00000258  00000+0  00000+0 0  9995
2 49336  37.4964  79.3119 0755511 272.0883 281.1819  1.00249302 17193
ZHONGXING-1D            
1 49505U 21114A   26187.31533632 -.00000321  00000+0  00000+0 0  9997
2 49505   0.0585 244.1941 0000208 107.1470 176.6728  1.00273713 17018
STPSAT-6                
1 49817U 21118A   26187.19617446 -.00000031  00000+0  00000+0 0  9997
2 49817   0.3667  85.2285 0000901 253.1640 264.6777  1.00270308 16764
EXPRESS AMU-7           
1 50001U 21123A   26187.31828300 -.00000228  00000+0  00000+0 0  9995
2 50001   0.0261 277.9631 0000550  72.2895 193.6288  1.00272470 16732
EXPRESS AMU-3           
1 50002U 21123B   26186.92554094  .00000000  00000+0  00000+0 0  9995
2 50002   0.0179   3.5191 0000117 320.5155  35.9646  1.00269967  7229
TIANLIAN 2-02           
1 50005U 21124A   26187.25219289  .00000000  00000+0  00000+0 0  9990
2 50005   0.8480  85.8478 0000976 166.2687 293.8970  1.00272050 16811
TURKSAT 5B              
1 50212U 21126A   26187.15534758  .00000160  00000+0  00000+0 0  9999
2 50212   0.0700 337.7327 0002555  19.5259  24.8065  1.00271918 16482
INMARSAT 6-F1           
1 50319U 21128A   26187.21919866 -.00000157  00000+0  00000+0 0  9990
2 50319   0.0217 286.3564 0000112 202.7995 317.7146  1.00270754 16453
SHIYAN-12 01 (SY-12 01) 
1 50321U 21129A   26183.72950594  .00000150  00000+0  00000+0 0  9991
2 50321   3.7121  79.7076 0002916 293.3389 217.6296  1.00046111 16653
SHIYAN-12 02 (SY-12 02) 
1 50322U 21129B   26183.76386029 -.00000326  00000+0  00000+0 0  9998
2 50322   3.7116  79.7099 0003122  60.1473 156.9356  1.00484340 16659
TJS-9                   
1 50574U 21135A   26187.31672300 -.00000285  00000+0  00000+0 0  9993
2 50574   0.0299 120.5553 0003517 305.9273 109.0139  1.00267740 16624
GOES 18                 
1 51850U 22021A   26187.11992289  .00000111  00000+0  00000+0 0  9992
2 51850   0.0038 278.4771 0000573 249.2475  22.5490  1.00272127  6781
ZHONGXING-6D            
1 52255U 22038A   26186.86413829 -.00000340  00000+0  00000+0 0  9994
2 52255   0.0370  91.3694 0000568  93.9085 174.7219  1.00269799 15613
NILESAT 301             
1 52817U 22061A   26187.14564086 -.00000043  00000+0  00000+0 0  9998
2 52817   0.0475  18.1959 0004286  47.1649 264.2393  1.00272860 14926
CMS-02 (GSAT-24)        
1 52903U 22067A   26187.02085833 -.00000150  00000+0  00000+0 0  9994
2 52903   0.0128 191.6357 0000963 180.4230   2.4440  1.00270254 14796
MEASAT 3D               
1 52904U 22067B   26187.16505429 -.00000227  00000+0  00000+0 0  9993
2 52904   0.0288 340.8205 0000330 112.5043 341.7445  1.00269436 14840
SES-22                  
1 52933U 22071A   26187.26207382  .00000119  00000+0  00000+0 0  9997
2 52933   0.0360 274.5227 0001049 191.6192 133.4555  1.00273035  7717
WFOV (USA 332)          
1 52940U 22073A   26186.95683096 -.00000350  00000+0  00000+0 0  9990
2 52940   3.7557  78.2953 0001331 226.0562  83.3735  1.00272812 14551
TIANLIAN 2-03           
1 53100U 22078A   26187.07780270  .00000086  00000+0  00000+0 0  9995
2 53100   0.7184  77.3584 0000989 350.6157 254.6788  1.00273918 14734
SBIRS GEO-6 (USA 336)   
1 53355U 22092A   26186.31907403 -.00000278  00000+0  00000+0 0  9992
2 53355   3.2284 317.7636 0002021 144.4674  74.9639  1.00271206 14417
EUTELSAT KONNECT VHTS   
1 53765U 22110A   26187.00499825  .00000031  00000+0  00000+0 0  9995
2 53765   0.0581  99.5258 0003058 349.8142 199.1717  1.00271434  7023
ZHONGXING-1E            
1 53813U 22112A   26187.30563013 -.00000134  00000+0  00000+0 0  9990
2 53813   0.0387 130.6207 0000494 102.6266 242.4714  1.00270214 14049
SES-20                  
1 53960U 22123A   26187.12251162 -.00000087  00000+0  00000+0 0  9991
2 53960   0.0179  64.3283 0002044  25.0995 135.6759  1.00270456 13722
SES-21                  
1 53961U 22123B   26186.97849773  .00000000  00000+0  00000+0 0  9999
2 53961   0.0395  29.2066 0000958  73.4513  42.6390  1.00268261  7404
GALAXY 33 (G-33)        
1 54026U 22128A   26186.90669551  .00000093  00000+0  00000+0 0  9996
2 54026   0.0199  60.6254 0001909  40.7490  15.9321  1.00271642 13934
GALAXY 34 (G-34)        
1 54027U 22128B   26186.76500991  .00000000  00000+0  00000+0 0  9991
2 54027   0.0172  13.7883 0001807 107.9387 308.4392  1.00274436 14091
ANGOSAT 2               
1 54033U 22131A   26187.22281275  .00000150  00000+0  00000+0 0  9991
2 54033   0.0199 124.4040 0000069 279.8859 343.1255  1.00271612 13663
