OBJECT_NAME,OBJECT_ID,EPOCH,MEAN_MOTION,ECCENTRICITY,INCLINATION,RA_OF_ASC_NODE,ARG_OF_PERICENTER,MEAN_ANOMALY,EPHEMERIS_TYPE,CLASSIFICATION_TYPE,NORAD_CAT_ID,ELEMENT_SET_NO,REV_AT_EPOCH,BSTAR,MEAN_MOTION_DOT,MEAN_MOTION_DDOT
TJS-7,2021-077A,2026-07-06T06:28:41.372256,1.00270860,.0003294,0.3088,264.3071,115.8192,261.8340,0,U,49115,999,974,0,-.109E-5,0
CHINASAT 9B,2021-080A,2026-07-06T07:25:58.335744,1.00273195,.00021712,0.0173,61.0734,75.8342,0.2951,0,U,49125,999,1784,0,-.298E-5,0
SHIJIAN-21 (SJ-21),2021-094A,2026-07-06T06:15:31.434336,1.00261404,.00500605,5.1551,61.0636,168.1494,276.5910,0,U,49330,999,555,0,-.337E-5,0
SES-17,2021-095A,2026-07-06T06:37:55.485696,1.00270102,.00010079,0.0221,42.1339,65.7350,208.7762,0,U,49332,999,1804,0,-.258E-5,0
SYRACUSE 4A,2021-095B,2026-07-06T05:26:57.935616,1.00269016,.00013521,0.0192,32.7742,66.3435,312.3537,0,U,49333,999,1813,0,0,0
QZS-1R (MICHIBIKI-1R),2021-096A,2026-07-05T14:25:33.375072,1.00249302,.07555114,37.4964,79.3119,272.0883,281.1819,0,U,49336,999,1719,0,-.258E-5,0
ZHONGXING-1D,2021-114A,2026-07-06T07:34:05.058048,1.00273713,.00002082,0.0585,244.1941,107.1470,176.6728,0,U,49505,999,1701,0,-.321E-5,0
STPSAT-6,2021-118A,2026-07-06T04:42:29.473344,1.00270308,.00009015,0.3667,85.2285,253.1640,264.6777,0,U,49817,999,1676,0,-.31E-6,0
EXPRESS AMU-7,2021-123A,2026-07-06T07:38:19.651200,1.00272470,.00005503,0.0261,277.9631,72.2895,193.6288,0,U,50001,999,1673,0,-.228E-5,0
EXPRESS AMU-3,2021-123B,2026-07-05T22:12:46.737216,1.00269967,.00001171,0.0179,3.5191,320.5155,35.9646,0,U,50002,999,722,0,0,0
TIANLIAN 2-02,2021-124A,2026-07-06T06:03:09.465696,1.00272050,.0000976,0.8480,85.8478,166.2687,293.8970,0,U,50005,999,1681,0,0,0
TURKSAT 5B,2021-126A,2026-07-06T03:43:42.030912,1.00271918,.00025553,0.0700,337.7327,19.5259,24.8065,0,U,50212,999,1648,0,.16E-5,0
INMARSAT 6-F1,2021-128A,2026-07-06T05:15:38.764224,1.00270754,.00001126,0.0217,286.3564,202.7995,317.7146,0,U,50319,999,1645,0,-.157E-5,0
SHIYAN-12 01 (SY-12 01),2021-129A,2026-07-02T17:30:29.313216,1.00046111,.0002916,3.7121,79.7076,293.3389,217.6296,0,U,50321,999,1665,0,.15E-5,0
SHIYAN-12 02 (SY-12 02),2021-129B,2026-07-02T18:19:57.529056,1.00484340,.0003122,3.7116,79.7099,60.1473,156.9356,0,U,50322,999,1665,0,-.326E-5,0
TJS-9,2021-135A,2026-07-06T07:36:04.867200,1.00267740,.00035172,0.0299,120.5553,305.9273,109.0139,0,U,50574,999,1662,0,-.285E-5,0
GOES 18,2022-021A,2026-07-06T02:52:41.337696,1.00272127,.00005738,0.0038,278.4771,249.2475,22.5490,0,U,51850,999,678,0,.111E-5,0
ZHONGXING-6D,2022-038A,2026-07-05T20:44:21.548256,1.00269799,.00005685,0.0370,91.3694,93.9085,174.7219,0,U,52255,999,1561,0,-.34E-5,0
NILESAT 301,2022-061A,2026-07-06T03:29:43.370304,1.00272860,.0004286,0.0475,18.1959,47.1649,264.2393,0,U,52817,999,1492,0,-.43E-6,0
CMS-02 (GSAT-24),2022-067A,2026-07-06T00:30:02.159712,1.00270254,.0000963,0.0128,191.6357,180.4230,2.4440,0,U,52903,999,1479,0,-.15E-5,0
MEASAT 3D,2022-067B,2026-07-06T03:57:40.690656,1.00269436,.00003307,0.0288,340.8205,112.5043,341.7445,0,U,52904,999,1484,0,-.227E-5,0
SES-22,2022-071A,2026-07-06T06:17:23.178048,1.00273035,.00010495,0.0360,274.5227,191.6192,133.4555,0,U,52933,999,771,0,.119E-5,0
WFOV (USA 332),2022-073A,2026-07-05T22:57:50.194944,1.00272812,.00013316,3.7557,78.2953,226.0562,83.3735,0,U,52940,999,1455,0,-.35E-5,0
TIANLIAN 2-03,2022-078A,2026-07-06T01:52:02.153280,1.00273918,.00009893,0.7184,77.3584,350.6157,254.6788,0,U,53100,999,1473,0,.86E-6,0
SBIRS GEO-6 (USA 336),2022-092A,2026-07-05T07:39:27.996192,1.00271206,.0002021,3.2284,317.7636,144.4674,74.9639,0,U,53355,999,1441,0,-.278E-5,0
EUTELSAT KONNECT VHTS,2022-110A,2026-07-06T00:07:11.848800,1.00271434,.00030587,0.0581,99.5258,349.8142,199.1717,0,U,53765,999,702,0,.31E-6,0
ZHONGXING-1E,2022-112A,2026-07-06T07:20:06.443232,1.00270214,.00004942,0.0387,130.6207,102.6266,242.4714,0,U,53813,999,1404,0,-.134E-5,0
SES-20,2022-123A,2026-07-06T02:56:25.003968,1.00270456,.00020442,0.0179,64.3283,25.0995,135.6759,0,U,53960,999,1372,0,-.87E-6,0
SES-21,2022-123B,2026-07-05T23:29:02.203872,1.00268261,.00009583,0.0395,29.2066,73.4513,42.6390,0,U,53961,999,740,0,0,0
GALAXY 33 (G-33),2022-128A,2026-07-05T21:45:38.492064,1.00271642,.00019098,0.0199,60.6254,40.7490,15.9321,0,U,54026,999,1393,0,.93E-6,0
GALAXY 34 (G-34),2022-128B,2026-07-05T18:21:36.856224,1.00274436,.00018071,0.0172,13.7883,107.9387,308.4392,0,U,54027,999,1409,0,0,0
ANGOSAT 2,2022-131A,2026-07-06T05:20:51.021600,1.00271612,.00000693,0.0199,124.4040,279.8859,343.1255,0,U,54033,999,1366,0,.15E-5,0
